NORAD_CAT_ID,OBJECT_NAME,OBJECT_TYPE,EPOCH,MEAN_MOTION,ECCENTRICITY,INCLINATION,RA_OF_ASC_NODE,ARG_OF_PERICENTER,MEAN_ANOMALY,BSTAR,MEAN_MOTION_DOT,MEAN_MOTION_DDOT,TLE_LINE0,TLE_LINE1,TLE_LINE2,SEMIMAJOR_AXIS,PERIOD,APOGEE,PERIGEE,DECAYED
56468.0,STARLINK-5998,PAYLOAD,2024-05-27 20:48:44,14.98322894,0.0003112,70.0005,345.2288,262.8077,97.2728,0.0001216,1.358e-05,0.0,0 STARLINK-5998,1 56468U 23064W   24148.86717729  .00001358  00000-0  12160-3 0  9990,2 56468  70.0005 345.2288 0003112 262.8077  97.2728 14.98322894 58125,6950.215,96.107,574.243,569.917,0.0
56468.0,STARLINK-5998,PAYLOAD,2024-05-27 22:24:52,14.98317157,0.0003082,70.0005,345.0604,263.1445,96.9363,0.00022522,2.594e-05,0.0,0 STARLINK-5998,1 56468U 23064W   24148.93393871  .00002594  00000-0  22522-3 0  9992,2 56468  70.0005 345.0604 0003082 263.1445  96.9363 14.98317157 57771,6950.233,96.108,574.24,569.956,0.0
56468.0,STARLINK-5998,PAYLOAD,2024-05-28 06:25:32,14.98333822,0.0002935,70.0006,344.2191,259.1074,100.9754,-6.7887e-05,-9.03e-06,0.0,0 STARLINK-5998,1 56468U 23064W   24149.26773478 -.00000903  00000-0 -67887-4 0  9992,2 56468  70.0006 344.2191 0002935 259.1074 100.9754 14.98333822 58186,6950.181,96.107,574.086,570.006,0.0
56468.0,STARLINK-5998,PAYLOAD,2024-05-28 14:26:12,14.98351107,0.0002927,70.0006,343.3782,262.1824,97.9003,-0.00029247,-3.583e-05,0.0,0 STARLINK-5998,1 56468U 23064W   24149.60153176 -.00003583  00000-0 -29247-3 0  9991,2 56468  70.0006 343.3782 0002927 262.1824  97.9003 14.98351107 57873,6950.128,96.106,574.027,569.958,0.0
56468.0,STARLINK-5998,PAYLOAD,2024-05-28 22:26:52,14.98332746,0.0002973,70.0004,342.5359,264.7668,95.3152,2.217e-05,1.72e-06,0.0,0 STARLINK-5998,1 56468U 23064W   24149.93533276  .00000172  00000-0  22170-4 0  9998,2 56468  70.0004 342.5359 0002973 264.7668  95.3152 14.98332746 57928,6950.184,96.107,574.116,569.983,0.0
56468.0,STARLINK-5998,PAYLOAD,2024-05-29 12:52:05,14.98329585,0.000297,70.0003,341.0209,265.5477,94.5342,1.8721e-05,1.3e-06,0.0,0 STARLINK-5998,1 56468U 23064W   24150.53617436  .00000130  00000-0  18721-4 0  9998,2 56468  70.0003 341.0209 0002970 265.5477  94.5342 14.98329585 58378,6950.194,96.107,574.123,569.995,0.0
56468.0,STARLINK-5998,PAYLOAD,2024-05-29 14:28:13,14.98329744,0.0002975,70.0004,340.8525,264.264,95.818,1.7887e-05,1.2e-06,0.0,0 STARLINK-5998,1 56468U 23064W   24150.60293416  .00000120  00000-0  17887-4 0  9995,2 56468  70.0004 340.8525 0002975 264.2640  95.8180 14.98329744 58023,6950.194,96.107,574.126,569.991,0.0
56468.0,STARLINK-5998,PAYLOAD,2024-05-29 22:28:53,14.98330758,0.0002964,70.0004,340.0108,263.4794,96.6028,2.83e-05,2.45e-06,0.0,0 STARLINK-5998,1 56468U 23064W   24150.93673330  .00000245  00000-0  28300-4 0  9998,2 56468  70.0004 340.0108 0002964 263.4794  96.6028 14.98330758 58073,6950.191,96.107,574.116,569.996,0.0
56468.0,STARLINK-5998,PAYLOAD,2024-05-30 12:54:06,14.98334315,0.0003006,70.0003,338.4952,265.8668,94.2148,2.4596e-05,2.01e-06,0.0,0 STARLINK-5998,1 56468U 23064W   24151.53757049  .00000201  00000-0  24596-4 0  9990,2 56468  70.0003 338.4952 0003006 265.8668  94.2148 14.98334315 58524,6950.18,96.107,574.134,569.955,0.0
56468.0,STARLINK-5998,PAYLOAD,2024-05-30 14:30:14,14.98333515,0.0003035,70.0002,338.327,265.9776,94.1036,1.2237e-05,5.3e-07,0.0,0 STARLINK-5998,1 56468U 23064W   24151.60433113  .00000053  00000-0  12237-4 0  9995,2 56468  70.0002 338.3270 0003035 265.9776  94.1036 14.98333515 58175,6950.182,96.107,574.156,569.938,0.0
56468.0,STARLINK-5998,PAYLOAD,2024-05-30 19:18:38,14.98333848,0.0003036,70.0001,337.8219,265.9183,94.1629,1.6723e-05,1.07e-06,0.0,0 STARLINK-5998,1 56468U 23064W   24151.80461037  .00000107  00000-0  16723-4 0  9997,2 56468  70.0001 337.8219 0003036 265.9183  94.1629 14.98333848 58205,6950.181,96.107,574.156,569.936,0.0
56468.0,STARLINK-5998,PAYLOAD,2024-05-31 12:56:06,14.983324,0.0003005,70.0,335.9701,263.8185,96.2631,3.4704e-05,3.21e-06,0.0,0 STARLINK-5998,1 56468U 23064W   24152.53896901  .00000321  00000-0  34704-4 0  9997,2 56468  70.0000 335.9701 0003005 263.8185  96.2631 14.98332400 58674,6950.185,96.107,574.139,569.962,0.0
56468.0,STARLINK-5998,PAYLOAD,2024-05-31 14:32:15,14.98331696,0.0003029,70.0,335.802,263.2104,96.8711,2.313e-05,1.83e-06,0.0,0 STARLINK-5998,1 56468U 23064W   24152.60572959  .00000183  00000-0  23130-4 0  9996,2 56468  70.0000 335.8020 0003029 263.2104  96.8711 14.98331696 58321,6950.188,96.107,574.158,569.947,0.0
56468.0,STARLINK-5998,PAYLOAD,2024-05-31 22:32:54,14.98351006,0.0002836,69.9998,334.9598,264.1674,95.9161,-0.00026487,-3.254e-05,0.0,0 STARLINK-5998,1 56468U 23064W   24152.93952335 -.00003254  00000-0 -26487-3 0  9993,2 56468  69.9998 334.9598 0002836 264.1674  95.9161 14.98351006 58732,6950.128,96.106,573.964,570.022,0.0
56468.0,STARLINK-5998,PAYLOAD,2024-06-01 12:58:08,14.98333203,0.0003025,69.9999,333.4451,270.9481,89.1331,-7.5906e-05,-9.99e-06,0.0,0 STARLINK-5998,1 56468U 23064W   24153.54037049 -.00000999  00000-0 -75906-4 0  9991,2 56468  69.9999 333.4451 0003025 270.9481  89.1331 14.98333203 58820,6950.183,96.107,574.15,569.946,0.0
56468.0,STARLINK-5998,PAYLOAD,2024-06-01 14:34:16,14.98328655,0.0003032,70.0,333.2768,269.605,90.4762,-9.0888e-06,-2.01e-06,0.0,0 STARLINK-5998,1 56468U 23064W   24153.60713145 -.00000201  00000-0 -90888-5 0  9999,2 56468  70.0000 333.2768 0003032 269.6050  90.4762 14.98328655 58479,6950.197,96.107,574.169,569.955,0.0
56468.0,STARLINK-5998,PAYLOAD,2024-06-02 04:59:28,14.98330198,0.000299,70.0003,331.7619,268.5203,91.5613,-3.5048e-05,-5.11e-06,0.0,0 STARLINK-5998,1 56468U 23064W   24154.20797094 -.00000511  00000-0 -35048-4 0  9991,2 56468  70.0003 331.7619 0002990 268.5203  91.5613 14.98330198 58562,6950.192,96.107,574.135,569.979,0.0
56468.0,STARLINK-5998,PAYLOAD,2024-06-03 17:50:34,14.98329479,0.0003005,70.0004,327.8898,269.8373,90.2442,3.6973e-05,3.48e-06,0.0,0 STARLINK-5998,1 56468U 23064W   24155.74345044  .00000348  00000-0  36973-4 0  9999,2 56468  70.0004 327.8898 0003005 269.8373  90.2442 14.98329479 59150,6950.195,96.107,574.148,569.971,0.0
56468.0,STARLINK-5998,PAYLOAD,2024-06-03 21:02:50,14.98330275,0.0002902,70.0006,327.5534,269.9174,90.1652,5.2309e-05,5.31e-06,0.0,0 STARLINK-5998,1 56468U 23064W   24155.87696973  .00000531  00000-0  52309-4 0  9998,2 56468  70.0006 327.5534 0002902 269.9174  90.1652 14.98330275 58811,6950.192,96.107,574.074,570.04,0.0
56468.0,STARLINK-5998,PAYLOAD,2024-06-04 11:28:02,14.98331763,0.0002899,69.9996,326.038,270.1573,89.9254,4.8321e-05,4.84e-06,0.0,0 STARLINK-5998,1 56468U 23064W   24156.47780867  .00000484  00000-0  48321-4 0  9997,2 56468  69.9996 326.0380 0002899 270.1573  89.9254 14.98331763 58908,6950.187,96.107,574.067,570.038,0.0
56468.0,STARLINK-5998,PAYLOAD,2024-06-04 17:52:34,14.98335228,0.0002927,70.0018,325.3639,268.6237,91.4587,5.4753e-05,5.6e-06,0.0,0 STARLINK-5998,1 56468U 23064W   24156.74484610  .00000560  00000-0  54753-4 0  9995,2 56468  70.0018 325.3639 0002927 268.6237  91.4587 14.98335228 59308,6950.177,96.107,574.076,570.007,0.0
56468.0,STARLINK-5998,PAYLOAD,2024-06-04 21:04:50,14.98334986,0.0002966,70.0025,325.0273,268.9374,91.1445,4.3139e-05,4.22e-06,0.0,0 STARLINK-5998,1 56468U 23064W   24156.87836628  .00000422  00000-0  43139-4 0  9992,2 56468  70.0025 325.0273 0002966 268.9374  91.1445 14.98334986 58966,6950.177,96.107,574.104,569.981,0.0
56468.0,STARLINK-5998,PAYLOAD,2024-06-05 11:30:03,14.98329248,0.0002893,70.0022,323.5124,268.6688,91.414,-5.9321e-06,-1.64e-06,0.0,0 STARLINK-5998,1 56468U 23064W   24157.47921016 -.00000164  00000-0 -59321-5 0  9991,2 56468  70.0022 323.5124 0002893 268.6688  91.4140 14.98329248 59416,6950.195,96.107,574.071,570.05,0.0
56468.0,STARLINK-5998,PAYLOAD,2024-06-05 21:06:52,14.98329744,0.0002967,70.003,322.5029,269.1513,90.9306,-3.2834e-05,-4.85e-06,0.0,0 STARLINK-5998,1 56468U 23064W   24157.87977080 -.00000485  00000-0 -32834-4 0  9992,2 56468  70.0030 322.5029 0002967 269.1513  90.9306 14.98329744 59119,6950.194,96.107,574.121,569.997,0.0
56468.0,STARLINK-5998,PAYLOAD,2024-06-06 11:32:04,14.98331579,0.0002954,70.0022,320.9884,269.8754,90.2066,-1.5216e-05,-2.75e-06,0.0,0 STARLINK-5998,1 56468U 23064W   24158.48060923 -.00000275  00000-0 -15216-4 0  9991,2 56468  70.0022 320.9884 0002954 269.8754  90.2066 14.98331579 59565,6950.188,96.107,574.106,570.0,0.0
56468.0,STARLINK-5998,PAYLOAD,2024-06-06 21:08:52,14.98336862,0.0002908,70.0001,319.9782,269.0076,91.075,2.5951e-05,2.17e-06,0.0,0 STARLINK-5998,1 56468U 23064W   24158.88116403  .00000217  00000-0  25951-4 0  9991,2 56468  70.0001 319.9782 0002908 269.0076  91.0750 14.98336862 59621,6950.172,96.107,574.058,570.016,0.0
56468.0,STARLINK-5998,PAYLOAD,2024-06-07 21:10:53,14.98331616,0.0002746,69.9991,317.4529,271.0811,89.0034,7.2843e-05,7.76e-06,0.0,0 STARLINK-5998,1 56468U 23064W   24159.88256599  .00000776  00000-0  72843-4 0  9995,2 56468  69.9991 317.4529 0002746 271.0811  89.0034 14.98331616 59419,6950.188,96.107,573.961,570.144,0.0
56468.0,STARLINK-5998,PAYLOAD,2024-06-08 03:35:25,14.98331984,0.0002803,69.9991,316.7789,273.7597,86.3242,8.1175e-05,8.76e-06,0.0,0 STARLINK-5998,1 56468U 23064W   24160.14960529  .00000876  00000-0  81175-4 0  9990,2 56468  69.9991 316.7789 0002803 273.7597  86.3242 14.98331984 59816,6950.187,96.107,574.0,570.104,0.0
56468.0,STARLINK-5998,PAYLOAD,2024-06-08 11:36:06,14.98334428,0.0002688,70.0,315.938,271.0843,89.0008,2.343e-05,1.87e-06,0.0,0 STARLINK-5998,1 56468U 23064W   24160.48340484  .00000187  00000-0  23430-4 0  9994,2 56468  70.0000 315.9380 0002688 271.0843  89.0008 14.98334428 59506,6950.179,96.107,573.912,570.176,0.0
56468.0,STARLINK-5998,PAYLOAD,2024-06-08 21:12:54,14.98336126,0.0002646,70.0003,314.9285,269.1917,90.8939,4.031e-05,3.88e-06,0.0,0 STARLINK-5998,1 56468U 23064W   24160.88396184  .00000388  00000-0  40310-4 0  9995,2 56468  70.0003 314.9285 0002646 269.1917  90.8939 14.98336126 59562,6950.174,96.107,573.878,570.2,0.0
